start=new Date('2023-02-02T00:00:00.000Z').valueOf();
sats=[{"EPHEMERIS_TYPE":"0","SITE":"AFETR","BSTAR":"0.00010859000000","REF_FRAME":"TEME","SEMIMAJOR_AXIS":"6925.324","MEAN_MOTION_DDOT":"0.0000000000000","GP_ID":"224165243","RA_OF_ASC_NODE":"310.5845","OBJECT_ID":"2021-021B","TLE_LINE2":"2 47861  53.0562 310.5845 0001377  92.8620 267.2527 15.06408166105082","PERIAPSIS":"546.235","DECAY_DATE":null,"ARG_OF_PERICENTER":"92.8620","MEAN_MOTION_DOT":"0.00001337","CENTER_NAME":"EARTH","FILE":"3767104","LAUNCH_DATE":"2021-03-14","MEAN_ELEMENT_THEORY":"SGP4","REV_AT_EPOCH":"10508","INCLINATION":"53.0562","CLASSIFICATION_TYPE":"U","ELEMENT_SET_NO":"999","OBJECT_NAME":"STARLINK-2280","PERIOD":"95.592","MEAN_MOTION":"15.06408166","NORAD_CAT_ID":"47861","MEAN_ANOMALY":"267.2527","TIME_SYSTEM":"UTC","ECCENTRICITY":"0.00013770","TLE_LINE1":"1 47861U 21021B   23032.19273182  .00001337  00000-0  10859-3 0  9995","EPOCH":"2023-02-01T04:37:32.029248","COUNTRY_CODE":"US","RCS_SIZE":"LARGE","APOAPSIS":"548.142","OBJECT_TYPE":"PAYLOAD"},{"TLE_LINE1":"1 47862U 21021C   23032.17292072  .00002139  00000-0  16242-3 0  9996","EPOCH":"2023-02-01T04:09:00.350208","COUNTRY_CODE":"US","RCS_SIZE":"LARGE","OBJECT_TYPE":"PAYLOAD","APOAPSIS":"548.102","OBJECT_NAME":"STARLINK-2291","MEAN_MOTION":"15.06408839","PERIOD":"95.592","NORAD_CAT_ID":"47862","MEAN_ANOMALY":"265.2266","ECCENTRICITY":"0.00013220","TIME_SYSTEM":"UTC","DECAY_DATE":null,"PERIAPSIS":"546.271","ARG_OF_PERICENTER":"94.8874","MEAN_MOTION_DOT":"0.00002139","FILE":"3767121","LAUNCH_DATE":"2021-03-14","CENTER_NAME":"EARTH","REV_AT_EPOCH":"10515","MEAN_ELEMENT_THEORY":"SGP4","INCLINATION":"53.0522","CLASSIFICATION_TYPE":"U","ELEMENT_SET_NO":"999","SITE":"AFETR","EPHEMERIS_TYPE":"0","REF_FRAME":"TEME","BSTAR":"0.00016242000000","SEMIMAJOR_AXIS":"6925.321","MEAN_MOTION_DDOT":"0.0000000000000","GP_ID":"224166152","RA_OF_ASC_NODE":"305.6910","OBJECT_ID":"2021-021C","TLE_LINE2":"2 47862  53.0522 305.6910 0001322  94.8874 265.2266 15.06408839105153"},{"MEAN_MOTION_DDOT":"0.0000000000000","SEMIMAJOR_AXIS":"6925.371","REF_FRAME":"TEME","BSTAR":"-0.00003928200000","SITE":"AFETR","EPHEMERIS_TYPE":"0","TLE_LINE2":"2 47863  53.0548 313.1882 0000907 109.8319 250.2768 15.06392612105098","RA_OF_ASC_NODE":"313.1882","OBJECT_ID":"2021-021D","GP_ID":"224204227","LAUNCH_DATE":"2021-03-14","FILE":"3767674","CENTER_NAME":"EARTH","MEAN_MOTION_DOT":"-0.00000866","ARG_OF_PERICENTER":"109.8319","PERIAPSIS":"546.608","DECAY_DATE":null,"CLASSIFICATION_TYPE":"U","ELEMENT_SET_NO":"999","REV_AT_EPOCH":"10509","INCLINATION":"53.0548","MEAN_ELEMENT_THEORY":"SGP4","PERIOD":"95.593","MEAN_MOTION":"15.06392612","OBJECT_NAME":"STARLINK-2293","TIME_SYSTEM":"UTC","ECCENTRICITY":"0.00009070","MEAN_ANOMALY":"250.2768","NORAD_CAT_ID":"47863","COUNTRY_CODE":"US","EPOCH":"2023-02-01T17:29:09.594528","TLE_LINE1":"1 47863U 21021D   23032.72858327 -.00000866  00000-0 -39282-4 0  9996","OBJECT_TYPE":"PAYLOAD","APOAPSIS":"547.864","RCS_SIZE":"LARGE"},{"RCS_SIZE":"LARGE","OBJECT_TYPE":"PAYLOAD","APOAPSIS":"548.250","TLE_LINE1":"1 47864U 21021E   23032.17661564  .00003359  00000-0  24428-3 0  9994","COUNTRY_CODE":"US","EPOCH":"2023-02-01T04:14:19.591296","NORAD_CAT_ID":"47864","MEAN_ANOMALY":"269.0417","TIME_SYSTEM":"UTC","ECCENTRICITY":"0.00015230","OBJECT_NAME":"STARLINK-2304","PERIOD":"95.592","MEAN_MOTION":"15.06405985","REV_AT_EPOCH":"10514","MEAN_ELEMENT_THEORY":"SGP4","INCLINATION":"53.0508","ELEMENT_SET_NO":"999","CLASSIFICATION_TYPE":"U","DECAY_DATE":null,"PERIAPSIS":"546.140","ARG_OF_PERICENTER":"91.0747","MEAN_MOTION_DOT":"0.00003359","FILE":"3767099","LAUNCH_DATE":"2021-03-14","CENTER_NAME":"EARTH","GP_ID":"224165263","RA_OF_ASC_NODE":"305.7230","OBJECT_ID":"2021-021E","TLE_LINE2":"2 47864  53.0508 305.7230 0001523  91.0747 269.0417 15.06405985105144","EPHEMERIS_TYPE":"0","SITE":"AFETR","SEMIMAJOR_AXIS":"6925.330","BSTAR":"0.00024428000000","REF_FRAME":"TEME","MEAN_MOTION_DDOT":"0.0000000000000"},{"EPOCH":"2023-02-01T18:26:11.155488","COUNTRY_CODE":"US","TLE_LINE1":"1 47865U 21021F   23032.76818467  .00001115  00000-0  93737-4 0  9994","APOAPSIS":"548.234","OBJECT_TYPE":"PAYLOAD","RCS_SIZE":"LARGE","PERIOD":"95.592","MEAN_MOTION":"15.06395030","OBJECT_NAME":"STARLINK-2310","TIME_SYSTEM":"UTC","ECCENTRICITY":"0.00014520","MEAN_ANOMALY":"267.4519","NORAD_CAT_ID":"47865","LAUNCH_DATE":"2021-03-14","FILE":"3767675","CENTER_NAME":"EARTH","MEAN_MOTION_DOT":"0.00001115","ARG_OF_PERICENTER":"92.6636","DECAY_DATE":null,"PERIAPSIS":"546.223","CLASSIFICATION_TYPE":"U","ELEMENT_SET_NO":"999","REV_AT_EPOCH":"10511","INCLINATION":"53.0518","MEAN_ELEMENT_THEORY":"SGP4","MEAN_MOTION_DDOT":"0.0000000000000","BSTAR":"0.00009373700000","REF_FRAME":"TEME","SEMIMAJOR_AXIS":"6925.364","EPHEMERIS_TYPE":"0","SITE":"AFETR","TLE_LINE2":"2 47865  53.0518 313.0120 0001452  92.6636 267.4519 15.06395030105112","OBJECT_ID":"2021-021F","RA_OF_ASC_NODE":"313.0120","GP_ID":"224204236"},{"TLE_LINE1":"1 47866U 21021G   23032.17568789  .00005320  00000-0  37564-3 0  9996","COUNTRY_CODE":"US","EPOCH":"2023-02-01T04:12:59.433696","RCS_SIZE":"LARGE","OBJECT_TYPE":"PAYLOAD","APOAPSIS":"548.177","OBJECT_NAME":"STARLINK-2320","PERIOD":"95.591","MEAN_MOTION":"15.06412015","NORAD_CAT_ID":"47866","MEAN_ANOMALY":"270.3371","ECCENTRICITY":"0.00014450","TIME_SYSTEM":"UTC","DECAY_DATE":null,"PERIAPSIS":"546.176","ARG_OF_PERICENTER":"89.7784","MEAN_MOTION_DOT":"0.00005320","CENTER_NAME":"EARTH","FILE":"3767675","LAUNCH_DATE":"2021-03-14","REV_AT_EPOCH":"10502","MEAN_ELEMENT_THEORY":"SGP4","INCLINATION":"53.0538","CLASSIFICATION_TYPE":"U","ELEMENT_SET_NO":"999","EPHEMERIS_TYPE":"0","SITE":"AFETR","SEMIMAJOR_AXIS":"6925.312","REF_FRAME":"TEME","BSTAR":"0.00037564000000","MEAN_MOTION_DDOT":"0.0000000000000","GP_ID":"224204474","RA_OF_ASC_NODE":"315.6775","OBJECT_ID":"2021-021G","TLE_LINE2":"2 47866  53.0538 315.6775 0001445  89.7784 270.3371 15.06412015105024"},{"OBJECT_TYPE":"PAYLOAD","APOAPSIS":"548.304","RCS_SIZE":"LARGE","TLE_LINE1":"1 47867U 21021H   23032.56732192  .00002084  00000-0  15873-3 0  9994","COUNTRY_CODE":"US","EPOCH":"2023-02-01T13:36:56.613888","MEAN_ANOMALY":"271.9906","NORAD_CAT_ID":"47867","ECCENTRICITY":"0.00015740","TIME_SYSTEM":"UTC","OBJECT_NAME":"STARLINK-2321","PERIOD":"95.592","MEAN_MOTION":"15.06399829","REV_AT_EPOCH":"10522","MEAN_ELEMENT_THEORY":"SGP4","INCLINATION":"53.0510","ELEMENT_SET_NO":"999","CLASSIFICATION_TYPE":"U","ARG_OF_PERICENTER":"88.1263","PERIAPSIS":"546.124","DECAY_DATE":null,"LAUNCH_DATE":"2021-03-14","FILE":"3767601","CENTER_NAME":"EARTH","MEAN_MOTION_DOT":"0.00002084","GP_ID":"224202279","TLE_LINE2":"2 47867  53.0510 303.9219 0001574  88.1263 271.9906 15.06399829105226","OBJECT_ID":"2021-021H","RA_OF_ASC_NODE":"303.9219","SITE":"AFETR","EPHEMERIS_TYPE":"0","MEAN_MOTION_DDOT":"0.0000000000000","SEMIMAJOR_AXIS":"6925.349","BSTAR":"0.00015873000000","REF_FRAME":"TEME"},{"TLE_LINE1":"1 47868U 21021J   23032.03009387  .00003841  00000-0  27666-3 0  9995","COUNTRY_CODE":"US","EPOCH":"2023-02-01T00:43:20.110368","RCS_SIZE":"LARGE","OBJECT_TYPE":"PAYLOAD","APOAPSIS":"548.017","OBJECT_NAME":"STARLINK-2323","MEAN_MOTION":"15.06390488","PERIOD":"95.593","NORAD_CAT_ID":"47868","MEAN_ANOMALY":"270.8110","TIME_SYSTEM":"UTC","ECCENTRICITY":"0.00011180","DECAY_DATE":null,"PERIAPSIS":"546.468","ARG_OF_PERICENTER":"89.3007","MEAN_MOTION_DOT":"0.00003841","FILE":"3767525","LAUNCH_DATE":"2021-03-14","CENTER_NAME":"EARTH","INCLINATION":"53.0519","REV_AT_EPOCH":"10632","MEAN_ELEMENT_THEORY":"SGP4","CLASSIFICATION_TYPE":"U","ELEMENT_SET_NO":"999","SITE":"AFETR","EPHEMERIS_TYPE":"0","SEMIMAJOR_AXIS":"6925.378","REF_FRAME":"TEME","BSTAR":"0.00027666000000","MEAN_MOTION_DDOT":"0.0000000000000","GP_ID":"224195469","RA_OF_ASC_NODE":"256.3282","OBJECT_ID":"2021-021J","TLE_LINE2":"2 47868  53.0519 256.3282 0001118  89.3007 270.8110 15.06390488106329"},{"EPHEMERIS_TYPE":"0","SITE":"AFETR","SEMIMAJOR_AXIS":"6925.359","REF_FRAME":"TEME","BSTAR":"0.00006803600000","MEAN_MOTION_DDOT":"0.0000000000000","GP_ID":"224204021","RA_OF_ASC_NODE":"303.3317","OBJECT_ID":"2021-021K","TLE_LINE2":"2 47869  53.0555 303.3317 0001295  90.2564 269.8573 15.06396435105246","DECAY_DATE":null,"PERIAPSIS":"546.328","ARG_OF_PERICENTER":"90.2564","MEAN_MOTION_DOT":"0.00000732","FILE":"3767662","LAUNCH_DATE":"2021-03-14","CENTER_NAME":"EARTH","MEAN_ELEMENT_THEORY":"SGP4","REV_AT_EPOCH":"10524","INCLINATION":"53.0555","ELEMENT_SET_NO":"999","CLASSIFICATION_TYPE":"U","OBJECT_NAME":"STARLINK-2324","PERIOD":"95.592","MEAN_MOTION":"15.06396435","NORAD_CAT_ID":"47869","MEAN_ANOMALY":"269.8573","ECCENTRICITY":"0.00012950","TIME_SYSTEM":"UTC","TLE_LINE1":"1 47869U 21021K   23032.69632940  .00000732  00000-0  68036-4 0  9998","COUNTRY_CODE":"US","EPOCH":"2023-02-01T16:42:42.860160","RCS_SIZE":"LARGE","APOAPSIS":"548.121","OBJECT_TYPE":"PAYLOAD"},{"EPOCH":"2023-02-01T05:59:48.488928","COUNTRY_CODE":"US","TLE_LINE1":"1 47870U 21021L   23032.24986677  .00001685  00000-0  13200-3 0  9990","APOAPSIS":"548.231","OBJECT_TYPE":"PAYLOAD","RCS_SIZE":"LARGE","MEAN_MOTION":"15.06405332","PERIOD":"95.592","OBJECT_NAME":"STARLINK-2326","TIME_SYSTEM":"UTC","ECCENTRICITY":"0.00014930","MEAN_ANOMALY":"273.8563","NORAD_CAT_ID":"47870","LAUNCH_DATE":"2021-03-14","FILE":"3767525","CENTER_NAME":"EARTH","MEAN_MOTION_DOT":"0.00001685","ARG_OF_PERICENTER":"86.2597","PERIAPSIS":"546.163","DECAY_DATE":null,"ELEMENT_SET_NO":"999","CLASSIFICATION_TYPE":"U","MEAN_ELEMENT_THEORY":"SGP4","REV_AT_EPOCH":"10519","INCLINATION":"53.0539","MEAN_MOTION_DDOT":"0.0000000000000","BSTAR":"0.00013200000000","REF_FRAME":"TEME","SEMIMAJOR_AXIS":"6925.332","SITE":"AFETR","EPHEMERIS_TYPE":"0","TLE_LINE2":"2 47870  53.0539 330.3429 0001493  86.2597 273.8563 15.06405332105190","RA_OF_ASC_NODE":"330.3429","OBJECT_ID":"2021-021L","GP_ID":"224196971"}];
